ADRAS-J                 
1 58992U 24034A   24202.12505904  .00005495  00000+0  50723-3 0  9994
2 58992  98.2127 176.6504 0042255 301.4812  58.2280 14.94400317 22787
